start=new Date('2021-11-23T00:00:00.000Z').valueOf();
sats=[{"MEAN_MOTION":"15.06401588","MEAN_MOTION_DDOT":"0.0000000000000","APOAPSIS":"548.462","INCLINATION":"53.0531","EPOCH":"2021-11-22T20:57:22.381344","LAUNCH_DATE":"2020-08-18","BSTAR":"0.00006101500000","DECAY_DATE":null,"TLE_LINE2":"2 46127  53.0531 134.8247 0001810  80.7465 279.3729 15.06401588 70709","GP_ID":"190271795","MEAN_MOTION_DOT":"0.00000627","MEAN_ANOMALY":"279.3729","REF_FRAME":"TEME","ECCENTRICITY":"0.00018100","CENTER_NAME":"EARTH","TIME_SYSTEM":"UTC","OBJECT_ID":"2020-057L","EPHEMERIS_TYPE":"0","COUNTRY_CODE":"US","FILE":"3221567","OBJECT_TYPE":"PAYLOAD","TLE_LINE1":"1 46127U 20057L   21326.87317571  .00000627  00000-0  61015-4 0  9999","REV_AT_EPOCH":"7070","PERIOD":"95.592","RCS_SIZE":"LARGE","OBJECT_NAME":"STARLINK-1621","ARG_OF_PERICENTER":"80.7465","SEMIMAJOR_AXIS":"6925.344","RA_OF_ASC_NODE":"134.8247","MEAN_ELEMENT_THEORY":"SGP4","PERIAPSIS":"545.955","ELEMENT_SET_NO":"999","SITE":"AFETR","NORAD_CAT_ID":"46127","CLASSIFICATION_TYPE":"U"},{"FILE":"3221309","OBJECT_TYPE":"PAYLOAD","TLE_LINE1":"1 46128U 20057M   21326.50272862  .00000402  00000-0  45848-4 0  9990","REV_AT_EPOCH":"7092","PERIOD":"95.592","RCS_SIZE":"LARGE","ARG_OF_PERICENTER":"74.7446","OBJECT_NAME":"STARLINK-1622","SEMIMAJOR_AXIS":"6925.322","RA_OF_ASC_NODE":"116.4905","MEAN_ELEMENT_THEORY":"SGP4","ELEMENT_SET_NO":"999","PERIAPSIS":"546.058","SITE":"AFETR","NORAD_CAT_ID":"46128","CLASSIFICATION_TYPE":"U","MEAN_MOTION":"15.06408793","MEAN_MOTION_DDOT":"0.0000000000000","APOAPSIS":"548.315","INCLINATION":"53.0547","EPOCH":"2021-11-22T12:03:55.752768","LAUNCH_DATE":"2020-08-18","BSTAR":"0.00004584800000","DECAY_DATE":null,"TLE_LINE2":"2 46128  53.0547 116.4905 0001629  74.7446 285.3723 15.06408793 70924","MEAN_MOTION_DOT":"0.00000402","GP_ID":"190267010","REF_FRAME":"TEME","MEAN_ANOMALY":"285.3723","ECCENTRICITY":"0.00016290","CENTER_NAME":"EARTH","TIME_SYSTEM":"UTC","OBJECT_ID":"2020-057M","EPHEMERIS_TYPE":"0","COUNTRY_CODE":"US"},{"ECCENTRICITY":"0.00015260","MEAN_ANOMALY":"273.4283","REF_FRAME":"TEME","GP_ID":"190267002","MEAN_MOTION_DOT":"0.00000717","EPHEMERIS_TYPE":"0","COUNTRY_CODE":"US","OBJECT_ID":"2020-057N","TIME_SYSTEM":"UTC","CENTER_NAME":"EARTH","EPOCH":"2021-11-22T19:24:29.058624","INCLINATION":"53.0546","MEAN_MOTION_DDOT":"0.0000000000000","APOAPSIS":"548.295","MEAN_MOTION":"15.06391846","TLE_LINE2":"2 46129  53.0546 115.1161 0001526  86.6880 273.4283 15.06391846 70978","LAUNCH_DATE":"2020-08-18","BSTAR":"0.00006703000000","DECAY_DATE":null,"SEMIMAJOR_AXIS":"6925.374","RA_OF_ASC_NODE":"115.1161","CLASSIFICATION_TYPE":"U","NORAD_CAT_ID":"46129","SITE":"AFETR","MEAN_ELEMENT_THEORY":"SGP4","PERIAPSIS":"546.182","ELEMENT_SET_NO":"999","PERIOD":"95.593","REV_AT_EPOCH":"7097","TLE_LINE1":"1 46129U 20057N   21326.80866966  .00000717  00000-0  67030-4 0  9994","OBJECT_TYPE":"PAYLOAD","FILE":"3221309","ARG_OF_PERICENTER":"86.6880","OBJECT_NAME":"STARLINK-1623","RCS_SIZE":"LARGE"},{"REF_FRAME":"TEME","MEAN_ANOMALY":"278.4511","MEAN_MOTION_DOT":"-0.00000768","GP_ID":"190266801","ECCENTRICITY":"0.00014870","TIME_SYSTEM":"UTC","CENTER_NAME":"EARTH","EPHEMERIS_TYPE":"0","COUNTRY_CODE":"US","OBJECT_ID":"2020-057P","MEAN_MOTION_DDOT":"0.0000000000000","APOAPSIS":"548.261","MEAN_MOTION":"15.06394121","EPOCH":"2021-11-22T12:14:32.252064","INCLINATION":"53.0540","TLE_LINE2":"2 46130  53.0540 116.4506 0001487  81.6646 278.4511 15.06394121 70925","BSTAR":"-0.00003269900000","LAUNCH_DATE":"2020-08-18","DECAY_DATE":null,"SEMIMAJOR_AXIS":"6925.367","RA_OF_ASC_NODE":"116.4506","SITE":"AFETR","MEAN_ELEMENT_THEORY":"SGP4","PERIAPSIS":"546.202","ELEMENT_SET_NO":"999","CLASSIFICATION_TYPE":"U","NORAD_CAT_ID":"46130","OBJECT_TYPE":"PAYLOAD","FILE":"3221311","PERIOD":"95.593","TLE_LINE1":"1 46130U 20057P   21326.51009551 -.00000768  00000-0 -32699-4 0  9994","REV_AT_EPOCH":"7092","OBJECT_NAME":"STARLINK-1624","ARG_OF_PERICENTER":"81.6646","RCS_SIZE":"LARGE"},{"ECCENTRICITY":"0.00017780","MEAN_MOTION_DOT":"0.00001039","GP_ID":"190262184","MEAN_ANOMALY":"275.2321","REF_FRAME":"TEME","OBJECT_ID":"2020-057Q","COUNTRY_CODE":"US","EPHEMERIS_TYPE":"0","CENTER_NAME":"EARTH","TIME_SYSTEM":"UTC","INCLINATION":"53.0542","EPOCH":"2021-11-22T12:33:07.845408","MEAN_MOTION":"15.06404202","APOAPSIS":"548.432","MEAN_MOTION_DDOT":"0.0000000000000","DECAY_DATE":null,"LAUNCH_DATE":"2020-08-18","BSTAR":"0.00008866700000","TLE_LINE2":"2 46131  53.0542 136.3995 0001778  84.8871 275.2321 15.06404202 71241","SEMIMAJOR_AXIS":"6925.336","RA_OF_ASC_NODE":"136.3995","NORAD_CAT_ID":"46131","CLASSIFICATION_TYPE":"U","PERIAPSIS":"545.969","ELEMENT_SET_NO":"999","MEAN_ELEMENT_THEORY":"SGP4","SITE":"AFETR","REV_AT_EPOCH":"7124","TLE_LINE1":"1 46131U 20057Q   21326.52300747  .00001039  00000-0  88667-4 0  9993","PERIOD":"95.592","FILE":"3221278","OBJECT_TYPE":"PAYLOAD","RCS_SIZE":"LARGE","OBJECT_NAME":"STARLINK-1625","ARG_OF_PERICENTER":"84.8871"},{"ECCENTRICITY":"0.00018300","MEAN_MOTION_DOT":"0.00000606","GP_ID":"190262435","REF_FRAME":"TEME","MEAN_ANOMALY":"278.9404","OBJECT_ID":"2020-057R","COUNTRY_CODE":"US","EPHEMERIS_TYPE":"0","CENTER_NAME":"EARTH","TIME_SYSTEM":"UTC","INCLINATION":"53.0539","EPOCH":"2021-11-22T13:28:50.803968","MEAN_MOTION":"15.06402410","APOAPSIS":"548.474","MEAN_MOTION_DDOT":"0.0000000000000","DECAY_DATE":null,"LAUNCH_DATE":"2020-08-18","BSTAR":"0.00005956300000","TLE_LINE2":"2 46132  53.0539 156.2231 0001830  81.1792 278.9404 15.06402410 70973","RA_OF_ASC_NODE":"156.2231","SEMIMAJOR_AXIS":"6925.341","NORAD_CAT_ID":"46132","CLASSIFICATION_TYPE":"U","PERIAPSIS":"545.939","ELEMENT_SET_NO":"999","MEAN_ELEMENT_THEORY":"SGP4","SITE":"AFETR","TLE_LINE1":"1 46132U 20057R   21326.56169912  .00000606  00000-0  59563-4 0  9997","REV_AT_EPOCH":"7097","PERIOD":"95.592","FILE":"3221278","OBJECT_TYPE":"PAYLOAD","RCS_SIZE":"LARGE","OBJECT_NAME":"STARLINK-1630","ARG_OF_PERICENTER":"81.1792"},{"LAUNCH_DATE":"2020-08-18","BSTAR":"-0.00004892100000","DECAY_DATE":null,"TLE_LINE2":"2 46133  53.0520 116.2198 0001743  91.3585 268.7603 15.06396221 70934","MEAN_MOTION":"15.06396221","MEAN_MOTION_DDOT":"0.0000000000000","APOAPSIS":"548.432","INCLINATION":"53.0520","EPOCH":"2021-11-22T13:28:50.784960","CENTER_NAME":"EARTH","TIME_SYSTEM":"UTC","OBJECT_ID":"2020-057S","EPHEMERIS_TYPE":"0","COUNTRY_CODE":"US","MEAN_MOTION_DOT":"-0.00001010","GP_ID":"190267385","MEAN_ANOMALY":"268.7603","REF_FRAME":"TEME","ECCENTRICITY":"0.00017430","RCS_SIZE":"LARGE","OBJECT_NAME":"STARLINK-1637","ARG_OF_PERICENTER":"91.3585","FILE":"3221335","OBJECT_TYPE":"PAYLOAD","TLE_LINE1":"1 46133U 20057S   21326.56169890 -.00001010  00000-0 -48921-4 0  9991","REV_AT_EPOCH":"7093","PERIOD":"95.592","MEAN_ELEMENT_THEORY":"SGP4","ELEMENT_SET_NO":"999","PERIAPSIS":"546.018","SITE":"AFETR","NORAD_CAT_ID":"46133","CLASSIFICATION_TYPE":"U","RA_OF_ASC_NODE":"116.2198","SEMIMAJOR_AXIS":"6925.360"},{"RCS_SIZE":"LARGE","OBJECT_NAME":"STARLINK-1638","ARG_OF_PERICENTER":"85.0559","FILE":"3221278","OBJECT_TYPE":"PAYLOAD","REV_AT_EPOCH":"7024","TLE_LINE1":"1 46134U 20057T   21326.36633871  .00000979  00000-0  84611-4 0  9992","PERIOD":"95.592","ELEMENT_SET_NO":"999","PERIAPSIS":"546.113","MEAN_ELEMENT_THEORY":"SGP4","SITE":"AFETR","NORAD_CAT_ID":"46134","CLASSIFICATION_TYPE":"U","RA_OF_ASC_NODE":"117.1004","SEMIMAJOR_AXIS":"6925.329","DECAY_DATE":null,"BSTAR":"0.00008461100000","LAUNCH_DATE":"2020-08-18","TLE_LINE2":"2 46134  53.0529 117.1004 0001561  85.0559 275.0608 15.06406503 70244","MEAN_MOTION":"15.06406503","APOAPSIS":"548.275","MEAN_MOTION_DDOT":"0.0000000000000","INCLINATION":"53.0529","EPOCH":"2021-11-22T08:47:31.664544","CENTER_NAME":"EARTH","TIME_SYSTEM":"UTC","OBJECT_ID":"2020-057T","COUNTRY_CODE":"US","EPHEMERIS_TYPE":"0","GP_ID":"190263429","MEAN_MOTION_DOT":"0.00000979","REF_FRAME":"TEME","MEAN_ANOMALY":"275.0608","ECCENTRICITY":"0.00015610"},{"FILE":"3221278","OBJECT_TYPE":"PAYLOAD","REV_AT_EPOCH":"7025","TLE_LINE1":"1 46135U 20057U   21326.44743561 -.00000876  00000-0 -39950-4 0  9994","PERIOD":"95.593","RCS_SIZE":"LARGE","OBJECT_NAME":"STARLINK-1639","ARG_OF_PERICENTER":"80.1945","RA_OF_ASC_NODE":"116.7303","SEMIMAJOR_AXIS":"6925.368","MEAN_ELEMENT_THEORY":"SGP4","ELEMENT_SET_NO":"999","PERIAPSIS":"546.185","SITE":"AFETR","NORAD_CAT_ID":"46135","CLASSIFICATION_TYPE":"U","MEAN_MOTION":"15.06393606","MEAN_MOTION_DDOT":"0.0000000000000","APOAPSIS":"548.282","INCLINATION":"53.0541","EPOCH":"2021-11-22T10:44:18.436704","LAUNCH_DATE":"2020-08-18","BSTAR":"-0.00003995000000","DECAY_DATE":null,"TLE_LINE2":"2 46135  53.0541 116.7303 0001514  80.1945 279.9215 15.06393606 70256","GP_ID":"190261684","MEAN_MOTION_DOT":"-0.00000876","REF_FRAME":"TEME","MEAN_ANOMALY":"279.9215","ECCENTRICITY":"0.00015140","CENTER_NAME":"EARTH","TIME_SYSTEM":"UTC","OBJECT_ID":"2020-057U","EPHEMERIS_TYPE":"0","COUNTRY_CODE":"US"},{"NORAD_CAT_ID":"46136","CLASSIFICATION_TYPE":"U","MEAN_ELEMENT_THEORY":"SGP4","PERIAPSIS":"545.847","ELEMENT_SET_NO":"999","SITE":"AFETR","RA_OF_ASC_NODE":"147.7108","SEMIMAJOR_AXIS":"6925.395","RCS_SIZE":"LARGE","OBJECT_NAME":"STARLINK-1643","ARG_OF_PERICENTER":"81.1404","TLE_LINE1":"1 46136U 20057V   21326.23090492  .00000769  00000-0  70553-4 0  9993","REV_AT_EPOCH":"6980","PERIOD":"95.593","FILE":"3221278","OBJECT_TYPE":"PAYLOAD","OBJECT_ID":"2020-057V","EPHEMERIS_TYPE":"0","COUNTRY_CODE":"US","CENTER_NAME":"EARTH","TIME_SYSTEM":"UTC","ECCENTRICITY":"0.00020400","GP_ID":"190262936","MEAN_MOTION_DOT":"0.00000769","MEAN_ANOMALY":"278.9816","REF_FRAME":"TEME","LAUNCH_DATE":"2020-08-18","BSTAR":"0.00007055300000","DECAY_DATE":null,"TLE_LINE2":"2 46136  53.0528 147.7108 0002040  81.1404 278.9816 15.06384973 69807","INCLINATION":"53.0528","EPOCH":"2021-11-22T05:32:30.185088","MEAN_MOTION":"15.06384973","MEAN_MOTION_DDOT":"0.0000000000000","APOAPSIS":"548.672"}];
